{"fetched_at":"2026-03-29T16:36:15Z","count":15609,"tles":[{"name":"STARLINK-33788","line1":"1 63589U 25076W   26087.75598289  .00023810  00000+0  87128-3 0  9999","line2":"2 63589  42.9985 214.2527 0001399 281.5843  78.4851 15.27604971 54741","category":"Starlink"}]}